#dP2021  6 20 18  0  0.00000000      96 __u+U ITR00 EXT  IAC
## 2163  64800.00000000   900.00000000 59385 0.7500000000000
+  116   C06C07C08C09C10C11C12C13C14C16C19C20C21C22C23C24C25
+        C26C27C28C29C30C32C33C34C35C36C37C38C39C40C41C42C43
+        C44C45C46E01E02E03E04E05E07E08E09E11E12E13E14E15E18
+        E19E21E24E25E26E27E30E31E33E36G01G02G03G04G05G06G07
+        G08G09G10G12G13G14G15G16G17G18G19G20G21G22G23G24G25
+        G26G27G28G29G30G31G32J01J02J03R01R02R03R04R05R07R08
+        R09R11R12R13R14R15R16R17R18R19R20R21R22R24  0  0  0
++         9 14 10  9 12  8  8  8  8  9  7  9  8  6  8  8  9
++         8  8  9  8  9  8  8  8  8  9  8  9 11 10  7  9  8
++         8  9  9  6  6  8  6  8  9  8  7  9  6  8  8  8  7
++         7  6  9  8  7  6  8  8  7  9  5  6  7  6  7  7  8
++         7  7  7  8  6  7  7  7  7  8  9  7  7  7  7  8  6
++         7  7  8  6  7  7  8 10  9  8  7  9  7  8  8  7  8
++        10  8  9  8  8  7  9  7  7  8  7  9 10  8  0  0  0
%c M  cc GPS ccc cccc cccc cccc cccc ccccc ccccc ccccc ccccc
%c cc cc ccc ccc cccc cccc cccc cccc ccccc ccccc ccccc ccccc
%f  0.0000000  0.000000000  0.00000000000  0.000000000000000
%f  0.0000000  0.000000000  0.00000000000  0.000000000000000
%i    0    0    0    0      0      0      0      0         0
%i    0    0    0    0      0      0      0      0         0
/* IAC                                ULTRA-RAPID PREDICTION
/* S/V CLOCKS ARE ALIGNED TO GNSS TIME                      
/* G:C1WC2W R:C1PC2P E:C1XC5X C:C2IC6I J:C1CC2S             
/* PCV:IGS14_2148 OL/AL:FES2004  NONE     YN ORB:CoN CLK:CoN
*  2021 06 20 21  0  0.00000000
PC06 -22865.300018  33571.689491  10802.984186    527.227559
PC07  -8463.801149  33906.971995  24221.577127     52.372792
PC08 -14212.339661  17769.525774 -35458.738121   -895.993716
PC09 -11222.845716  33042.548079  23666.107156    433.286568
PC10   3158.024956  40041.610456  13798.608603    -27.601953
PC11 -17083.703140  -4517.213865  21662.611898    411.468702
PC12   -826.832724 -17689.468807  21587.536710    837.587667
PC13   -789.027059  22800.607933 -35348.663154    307.347310
PC14 -15228.709892 -15337.607954 -17590.496413    881.726893
PC16 -21210.212080  34069.260114  12704.733620   -911.712358
PC19  16399.878618   4761.882887  22103.223667    879.852346
PC20  12291.525421  22171.963079  11722.972049   -869.850449
PC21   -519.928173 -27177.750056   6268.192595   -935.253586
PC22  11164.056273 -15944.550034  19989.553545   -949.515779
PC23 -18499.155235   7921.275720  19341.865363   -942.329708
PC24 -18931.287036 -16394.943892 -12333.834881   -902.121182
PC25 -26895.477476  -4908.613326   5641.210749   -897.949895
PC26  -1741.839199 -17148.904169 -21956.884127    889.895798
PC27  -8232.886888  21172.096921 -16221.460135    551.548420
PC28 -21681.093440  17574.618280    126.537679    -59.962372
PC29  22187.966512  -4486.283684 -16332.316582    408.807165
PC30   9961.155648  12398.506115 -22939.656331    471.366182
PC32    755.668706  27196.451127  -6225.955555   -924.638407
PC33 -16433.838229  -4717.730588 -22041.504552   -937.623939
PC34 -10594.411284 -11890.115779  22901.213977   -645.915629
PC35  21229.198304 -18134.413200   -499.616620   -223.985097
PC36  26777.483796   5817.431595  -5260.291929   -728.308412
PC37    268.143962  16952.600386  22184.278620   -872.823281
PC38 -11933.031107  21109.533101 -34491.830501    156.561488
PC39 -17927.980545  35521.133892  13734.558115     31.903690
PC40  -2443.523535  37900.716142  18495.874260    172.918777
PC41 -11259.934793  15727.635769 -20063.516933   -949.567034
PC42 -11938.099806 -22672.359463 -10983.061465   -914.321403
PC43 -22068.441375   3843.019856  16616.286236   -785.504673
PC44   7702.261823 -21558.258947  15967.314784    249.592042
PC45  18327.688848  -7944.533934 -19471.352869    472.530274
PC46  19748.232972  15967.322302  11543.051710    215.171303
PE01 -18504.706311 -22947.850761  -2675.945161  -1133.475978
PE02  18572.691728  22899.064416   2553.831610    227.484952
PE03   8202.208342  20517.029233  19709.032124   -444.120890
PE04 -17515.408643   -570.489801 -23844.089018   -796.643510
PE05  -6074.158572  28707.389664   3927.370589   -271.377995
PE07  16665.519668 -20066.589850  13990.167306   -552.260352
PE08  17463.857396     87.174929  23904.210355   5982.836318
PE09 -16421.900013  20349.826076 -13879.022986   5626.947936
PE11 -24786.587443  12560.423791 -10190.579469   5825.084982
PE12 -28087.846279    251.555224   9300.653488   5150.239194
PE13  25036.522639 -12397.169712   9789.032469    418.003345
PE14 -18916.587282   6994.336412  15121.736915  -1473.047909
PE15  28103.940923   -398.067621  -9292.887985    807.733896
PE18  20725.147449   3271.436517 -23308.829772  -1613.603736
PE19  -6548.507958 -22207.205248 -18431.033485    307.241713
PE21  -3749.465677 -22676.321790 -18650.586974   -671.802864
PE24 -14556.569277   8479.232903  24330.353875   -965.523541
PE25   3554.511646  22601.117984  18788.649617   -537.542391
PE26   6313.703917 -17170.315738  23266.905116   1670.240899
PE27  13826.496727  -9315.231145 -24453.237113    -58.593866
PE30  23253.858847  10399.782348 -15073.599382   2847.498018
PE31 -23157.896371  -9420.087887  15855.243226   -482.420988
PE33 -14612.571391 -11814.011031  22866.564845   -468.869683
PE36  -7223.055596  17075.155520 -23075.647988   -223.668144
PG01  10712.458536  13432.366237 -20618.091988    652.336708
PG02  14702.677442 -14034.388797  17780.858905   -613.867025
PG03  12065.275882  23520.378001  -3237.180169   -197.618257
PG04   3548.340864  19146.124459  18045.968018   -200.436965
PG05  -2095.835043 -21740.557015  14832.053722    -45.541278
PG06  23898.539337  -7007.986589   9373.543473     29.445091
PG07  23113.812378   7631.382110  11563.013839    183.258092
PG08  -4057.785650  23905.424187 -10484.795389    -25.844629
PG09  12534.996969   9084.965104  21522.539014   -352.065903
PG10 -17725.943652  -3064.117474 -19514.409904   -146.317402
PG12  -9467.774615 -24518.467662  -4568.306779    -57.731573
PG13  12580.743045 -22898.248933  -4475.683454    147.446406
PG14  17692.731103   3311.374065 -19551.301833     65.082482
PG15    727.903456 -24207.864557 -10854.288688   -141.009605
PG16  -4486.572206  18446.089829  18132.531946   -344.462714
PG17  18000.115452  -6277.039895 -18069.152050    461.602835
PG18 -24583.096747  -5531.087128   8500.764625    345.732488
PG19  19243.682719 -13565.089023 -12447.251874     15.992089
PG20   -755.451245 -20315.885657  17189.210742    520.969626
PG21   2461.327850  14772.013693 -21243.009084    126.317764
PG22   6991.938914  22908.049992 -11508.456322   -583.439735
PG23 -19243.259104 -13599.473270 -12330.142522     94.543779
PG24  -5770.961357 -15197.282300 -21295.419316    141.418846
PG25 -17191.493315 -19430.640586   6047.928214    159.476104
PG26 -11802.852828  10284.517528  21383.264803    100.891177
PG27 -12027.076834  23451.327549   -568.563830   -150.380503
PG28  14828.365997  -2789.183980 -21292.971747    551.287254
PG29 -10570.253332 -10565.238124  21900.383866   -367.407707
PG30  26662.369455   -863.567979   -822.611735   -441.406781
PG31 -22822.503054   8182.651527  11283.549747   -124.195243
PG32 -18191.655205   9307.949092 -16758.725572     17.720697
PJ01 -21438.532161  28971.248236 -17325.718865   -399.629179
PJ02 -25902.519519  21306.604855  30497.638134     -0.342627
PJ03 -34305.888651  24221.062977   1391.733886     -8.658400
PR01   8885.322487  15750.477290  18003.444935     81.169521
PR02  10638.496975  -6380.958706  22341.989428    483.104508
PR03   5814.288582 -21876.166728  11856.250093     38.057207
PR04  -2156.582301 -24886.369686  -5147.451714     92.196463
PR05  -8863.714109 -14120.078084 -19299.037347     73.918802
PR07  -5509.811266  22220.588595 -11164.729178    -42.277075
PR08   2315.271725  24836.571038   5348.246791    -59.607047
PR09 -19773.868560  -2224.815155  15932.771223     -1.076604
PR11  10884.349286  15446.609039  17155.199121    -13.840730
PR12  21886.588798  13071.256252    636.199918    238.820963
PR13  20089.401172   2911.564941 -15462.119488    -56.568977
PR14   5981.740784  -9333.353573 -22959.065530     65.564534
PR15 -11098.338924 -15734.844065 -16706.078409    103.137017
PR16 -22512.305000 -12128.016882    472.306251    -16.654009
PR17  17402.101705 -15297.828454  10625.530066    434.355059
PR18   2930.341407 -12841.763067  21861.768884     80.723083
PR19 -12427.181979  -4451.754720  21819.904909   -148.510540
PR20 -22950.621831   8167.698299   7494.019092    -51.201320
PR21 -16682.732091  15329.870785 -11754.192294   -218.017059
PR22  -1838.196136  12328.031503 -22259.398229   -118.692115
PR24  22960.059951  -8829.497396  -6713.115533     47.313159
EOF
